NORAD_CAT_ID,OBJECT_NAME,OBJECT_TYPE,EPOCH,MEAN_MOTION,ECCENTRICITY,INCLINATION,RA_OF_ASC_NODE,ARG_OF_PERICENTER,MEAN_ANOMALY,BSTAR,MEAN_MOTION_DOT,MEAN_MOTION_DDOT,TLE_LINE0,TLE_LINE1,TLE_LINE2,SEMIMAJOR_AXIS,PERIOD,APOGEE,PERIGEE,DECAYED
54798.0,STARLINK-5420,PAYLOAD,2023-01-04 14:00:01,15.7321056,7.609999999999999e-05,53.2151,218.083,59.8088,47.5437,0.00076393,0.00108029,0.0,0 STARLINK-5420,1 54798U 22175AS  23004.58335648  .00108029  00000-0  76393-3 0  9992,2 54798  53.2151 218.0830 0000761  59.8088  47.5437 15.73210560  1300,6727.865,91.533,350.242,349.218,0.0
54798.0,STARLINK-5420,PAYLOAD,2023-01-04 22:00:00,15.73247643,8.669999999999999e-05,53.2166,216.4362,58.8716,137.4048,-0.00047771,-0.00067262,0.0,0 STARLINK-5420,1 54798U 22175AS  23004.91667824 -.00067262  00000-0 -47771-3 0  9996,2 54798  53.2166 216.4362 0000867  58.8716 137.4048 15.73247643  1301,6727.759,91.53,350.208,349.041,0.0
54798.0,STARLINK-5420,PAYLOAD,2023-01-05 00:00:00,15.73222213,8.290000000000001e-05,53.2166,216.0243,60.3225,248.2022,-0.00022429,-0.00032006,0.0,0 STARLINK-5420,1 54798U 22175AS  23005.00001157 -.00032006  00000-0 -22429-3 0  9999,2 54798  53.2166 216.0243 0000829  60.3225 248.2022 15.73222213  2609,6727.831999999999,91.532,350.255,349.139,0.0
54798.0,STARLINK-5420,PAYLOAD,2023-01-05 10:00:00,15.73199306,9.56e-05,53.2147,213.959,57.5146,92.2286,0.00034576,0.00048182,0.0,0 STARLINK-5420,1 54798U 22175AS  23005.41667824  .00048182  00000-0  34576-3 0  9999,2 54798  53.2147 213.9590 0000956  57.5146  92.2286 15.73199306  2661,6727.897,91.533,350.405,349.119,0.0
54798.0,STARLINK-5420,PAYLOAD,2023-01-05 14:00:01,15.732111800000002,9.61e-05,53.2149,213.1342,58.3078,315.8855,6.026100000000001e-05,7.85e-05,0.0,0 STARLINK-5420,1 54798U 22175AS  23005.58334491  .00007850  00000-0  60261-4 0  9996,2 54798  53.2149 213.1342 0000961  58.3078 315.8855 15.73211180  1300,6727.863,91.533,350.375,349.082,0.0
54798.0,STARLINK-5420,PAYLOAD,2023-01-05 20:00:01,15.73221256,0.0001078,53.2148,211.8986,45.8247,305.0794,-0.00042144,-0.00059402,0.0,0 STARLINK-5420,1 54798U 22175AS  23005.83334491 -.00059402  00000-0 -42144-3 0  9995,2 54798  53.2148 211.8986 0001078  45.8247 305.0794 15.73221256  1305,6727.835,91.532,350.425,348.974,0.0
54798.0,STARLINK-5420,PAYLOAD,2023-01-06 08:00:01,15.73158349,0.0001168,53.2146,209.4231,54.6537,249.6732,0.00046462,0.00064975,0.0,0 STARLINK-5420,1 54798U 22175AS  23006.33334491  .00064975  00000-0  46462-3 0  9997,2 54798  53.2146 209.4231 0001168  54.6537 249.6732 15.73158349  2813,6728.014,91.536,350.665,349.093,0.0
54798.0,STARLINK-5420,PAYLOAD,2023-01-06 14:00:01,15.73170811,0.0001199,53.2146,208.1859,60.8785,220.0952,0.00055146,0.00077392,0.0,0 STARLINK-5420,1 54798U 22175AS  23006.58334491  .00077392  00000-0  55146-3 0  9990,2 54798  53.2146 208.1859 0001199  60.8785 220.0952 15.73170811  2841,6727.978,91.535,350.65,349.037,0.0
54798.0,STARLINK-5420,PAYLOAD,2023-01-06 22:00:00,15.73235411,0.0001421,53.2144,206.5385,50.7442,319.154,-9.0938e-05,-0.00013382,0.0,0 STARLINK-5420,1 54798U 22175AS  23006.91667824 -.00013382  00000-0 -90938-4 0  9996,2 54798  53.2144 206.5385 0001421  50.7442 319.1540 15.73235411  1302,6727.794,91.531,350.615,348.7030000000001,0.0
54798.0,STARLINK-5420,PAYLOAD,2023-01-07 06:00:00,15.73243273,0.0001357,53.2143,204.8873,53.7804,45.0924,-0.00067509,-0.00094482,0.0,0 STARLINK-5420,1 54798U 22175AS  23007.25001157 -.00094482  00000-0 -67509-3 0  9992,2 54798  53.2143 204.8873 0001357  53.7804  45.0924 15.73243273  1303,6727.772,91.531,350.55,348.724,0.0
54798.0,STARLINK-5420,PAYLOAD,2023-01-07 22:00:00,15.73159001,0.0001656,53.2147,201.5897,50.7568,225.9602,0.00072628,0.0010238,0.0,0 STARLINK-5420,1 54798U 22175AS  23007.91667824  .00102380  00000-0  72628-3 0  9997,2 54798  53.2147 201.5897 0001656  50.7568 225.9602 15.73159001  3054,6728.012,91.536,350.991,348.7630000000001,0.0
54798.0,STARLINK-5420,PAYLOAD,2023-01-07 22:21:12,15.73190123,0.0001214,53.2154,201.5156,37.3103,322.8001,8.0851e-05,0.00010737,0.0,0 STARLINK-5420,1 54798U 22175AS  23007.93139531  .00010737  00000-0  80851-4 0  9990,2 54798  53.2154 201.5156 0001214  37.3103 322.8001 15.73190123  3067,6727.923000000002,91.534,350.605,348.972,0.0
54798.0,STARLINK-5420,PAYLOAD,2023-01-08 00:00:00,15.73169184,0.0001631999999999,53.2144,201.1773,48.4658,340.4769,0.00080208,0.00113328,0.0,0 STARLINK-5420,1 54798U 22175AS  23008.00001157  .00113328  00000-0  80208-3 0  9996,2 54798  53.2144 201.1773 0001632  48.4658 340.4769 15.73169184  1304,6727.983,91.535,350.946,348.75,0.0
54798.0,STARLINK-5420,PAYLOAD,2023-01-08 12:04:31,15.73225099,0.0001358,53.2163,198.6866,27.4225,332.6866,0.00017001,0.00023331,0.0,0 STARLINK-5420,1 54798U 22175AS  23008.50314222  .00023331  00000-0  17001-3 0  9996,2 54798  53.2163 198.6866 0001358  27.4225 332.6866 15.73225099  3154,6727.824000000001,91.532,350.602,348.775,0.0
54798.0,STARLINK-5420,PAYLOAD,2023-01-08 15:07:28,15.73236483,0.0001303,53.2155,198.0575,20.8008,339.3065,0.00019834,0.0002735,0.0,0 STARLINK-5420,1 54798U 22175AS  23008.63019579  .00027350  00000-0  19834-3 0  9998,2 54798  53.2155 198.0575 0001303  20.8008 339.3065 15.73236483  5338,6727.791,91.531,350.533,348.78,0.0
54798.0,STARLINK-5420,PAYLOAD,2023-01-09 13:59:41,15.73216004,0.0002855,53.2141,193.3435,33.3779,326.742,9.4648e-05,0.00012692,0.0,0 STARLINK-5420,1 54798U 22175AS  23009.58311900  .00012692  00000-0  94648-4 0  9996,2 54798  53.2141 193.3435 0002855  33.3779 326.7420 15.73216004  3322,6727.85,91.532,351.635,347.7940000000001,0.0
54798.0,STARLINK-5420,PAYLOAD,2023-01-10 11:20:24,15.73215268,0.0002657,53.212,188.9418,52.8753,307.2509,3.4611e-05,4.241e-05,0.0,0 STARLINK-5420,1 54798U 22175AS  23010.47250582  .00004241  00000-0  34611-4 0  9999,2 54798  53.2120 188.9418 0002657  52.8753 307.2509 15.73215268  3466,6727.852,91.532,351.504,347.9290000000001,0.0
54798.0,STARLINK-5420,PAYLOAD,2023-01-10 20:29:17,15.7320445,0.0001115,53.2151,187.0518,45.70399999999999,314.4072,2.0922e-05,2.318e-05,0.0,0 STARLINK-5420,1 54798U 22175AS  23010.85367182  .00002318  00000-0  20922-4 0  9999,2 54798  53.2151 187.0518 0001115  45.7040 314.4072 15.73204450  3522,6727.882,91.533,350.4980000000001,348.997,0.0
54798.0,STARLINK-5420,PAYLOAD,2023-01-11 13:15:33,15.73226507,0.0001194,53.2157,183.5928,46.0144,314.0975,0.00012089,0.00016398,0.0,0 STARLINK-5420,1 54798U 22175AS  23011.55247655  .00016398  00000-0  12089-3 0  9996,2 54798  53.2157 183.5928 0001194  46.0144 314.0975 15.73226507  5796,6727.82,91.532,350.48800000000006,348.881,0.0
54798.0,STARLINK-5420,PAYLOAD,2023-01-11 17:50:00,15.73240516,0.0001232,53.2157,182.65,42.9757,317.1359,0.00015554,0.00021302,0.0,0 STARLINK-5420,1 54798U 22175AS  23011.74305665  .00021302  00000-0  15554-3 0  9994,2 54798  53.2157 182.6500 0001232  42.9757 317.1359 15.73240516  3660,6727.78,91.531,350.474,348.816,0.0
54798.0,STARLINK-5420,PAYLOAD,2023-01-11 20:52:58,15.73197427,0.0002525,53.2113,182.0259,63.0419,297.0859,6.0233e-06,2.23e-06,0.0,0 STARLINK-5420,1 54798U 22175AS  23011.87012382  .00000223  00000-0  60233-5 0  9994,2 54798  53.2113 182.0259 0002525  63.0419 297.0859 15.73197427  5847,6727.903,91.533,351.466,348.069,0.0
54798.0,STARLINK-5420,PAYLOAD,2023-01-12 04:30:22,15.73200339,7.26e-05,53.2154,180.4509,59.3379,300.7713,1.3795e-05,1.317e-05,0.0,0 STARLINK-5420,1 54798U 22175AS  23012.18776286  .00001317  00000-0  13795-4 0  9994,2 54798  53.2154 180.4509 0000726  59.3379 300.7713 15.73200339  3730,6727.894,91.533,350.2480000000001,349.271,0.0
54798.0,STARLINK-5420,PAYLOAD,2023-01-12 19:45:11,15.73193764,3.96e-05,53.2156,177.30700000000004,81.6006,278.5059,0.00010685,0.00014398,0.0,0 STARLINK-5420,1 54798U 22175AS  23012.82305015  .00014398  00000-0  10685-3 0  9990,2 54798  53.2156 177.3070 0000396  81.6006 278.5059 15.73193764  3837,6727.913000000001,91.534,350.0440000000001,349.51199999999994,0.0
54798.0,STARLINK-5420,PAYLOAD,2023-01-13 12:31:28,15.73216512,0.0001478,53.2144,173.851,70.0122,290.1057,0.00011267,0.00015232,0.0,0 STARLINK-5420,1 54798U 22175AS  23013.52186063  .00015232  00000-0  11267-3 0  9993,2 54798  53.2144 173.8510 0001478  70.0122 290.1057 15.73216512  6105,6727.848000000001,91.532,350.707,348.719,0.0
54798.0,STARLINK-5420,PAYLOAD,2023-01-14 03:46:16,15.73217881,0.0001164,53.2143,170.7072,102.2742,257.8409,9.6008e-05,0.00012885,0.0,0 STARLINK-5420,1 54798U 22175AS  23014.15713598  .00012885  00000-0  96008-4 0  9990,2 54798  53.2143 170.7072 0001164 102.2742 257.8409 15.73217881  4043,6727.844,91.532,350.492,348.926,0.0
54798.0,STARLINK-5420,PAYLOAD,2023-01-15 13:18:49,15.73227753,8.25e-05,53.2138,163.792,71.4225,288.6885,0.00011749,0.0001592,0.0,0 STARLINK-5420,1 54798U 22175AS  23015.55474533  .00015920  00000-0  11749-3 0  9999,2 54798  53.2138 163.7920 0000825  71.4225 288.6885 15.73227753  4260,6727.816,91.532,350.236,349.126,0.0
54798.0,STARLINK-5420,PAYLOAD,2023-01-15 16:21:47,15.73242499,8.58e-05,53.2145,163.1618,62.5186,297.5921,0.00017704,0.00024343,0.0,0 STARLINK-5420,1 54798U 22175AS  23015.68179563  .00024343  00000-0  17704-3 0  9994,2 54798  53.2145 163.1618 0000858  62.5186 297.5921 15.73242499  4285,6727.774,91.531,350.216,349.06199999999995,0.0
54798.0,STARLINK-5420,PAYLOAD,2023-01-16 03:02:09,15.73198762,8.690000000000001e-05,53.2162,160.9616,99.0424,261.0694,-3.1668e-05,-5.06e-05,0.0,0 STARLINK-5420,1 54798U 22175AS  23016.12649897 -.00005060  00000-0 -31668-4 0  9999,2 54798  53.2162 160.9616 0000869  99.0424 261.0694 15.73198762  4353,6727.899,91.533,350.348,349.17900000000003,0.0
54798.0,STARLINK-5420,PAYLOAD,2023-01-16 18:16:58,15.73194672,9.68e-05,53.2145,157.8205,54.2613,305.8497,-7.0023e-06,-1.602e-05,0.0,0 STARLINK-5420,1 54798U 22175AS  23016.76178535 -.00001602  00000-0 -70023-5 0  9992,2 54798  53.2145 157.8205 0000968  54.2613 305.8497 15.73194672  6611,6727.91,91.533,350.427,349.124,0.0
